[{"OBJECT_NAME":"STARLINK-31641","OBJECT_ID":"2024-062A","EPOCH":"2026-03-09T20:02:38.294016","MEAN_MOTION":15.30185555,"ECCENTRICITY":0.00011094,"INCLINATION":53.1599,"RA_OF_ASC_NODE":257.8367,"ARG_OF_PERICENTER":96.0509,"MEAN_ANOMALY":264.0618,"EPHEMERIS_TYPE":0,"CLASSIFICATION_TYPE":"U","NORAD_CAT_ID":59374,"ELEMENT_SET_NO":999,"REV_AT_EPOCH":10964,"BSTAR":-1.980126e-6,"MEAN_MOTION_DOT":-4.18e-6,"MEAN_MOTION_DDOT":0},{"OBJECT_NAME":"GEOSCAN 5 (RS92S5)","OBJECT_ID":"2025-155R","EPOCH":"2026-03-09T22:01:07.273920","MEAN_MOTION":15.30265233,"ECCENTRICITY":0.00070849,"INCLINATION":97.4462,"RA_OF_ASC_NODE":37.7456,"ARG_OF_PERICENTER":154.5846,"MEAN_ANOMALY":205.5745,"EPHEMERIS_TYPE":0,"CLASSIFICATION_TYPE":"U","NORAD_CAT_ID":64891,"ELEMENT_SET_NO":999,"REV_AT_EPOCH":6562,"BSTAR":0.00068639307,"MEAN_MOTION_DOT":0.00020065,"MEAN_MOTION_DDOT":0}]
